OSCAR III [-]           
1 01293U 65016F   08167.78255736  .00000070  00000-0  77341-4 0  2680
2 01293  70.0741 243.2369 0019919 295.2550  64.6494 14.04642244208354
AO-5 [-]                
1 04321U 70008B   08166.92746689 -.00000031  00000-0  10000-3 0   278
2 04321 102.1217 165.1124 0027773 315.6802  44.2045 12.52153459754795
AO-6 [-]                
1 06236U 72082B   08167.61875412 -.00000027  00000-0  10000-3 0    43
2 06236 101.4176 189.5159 0003489 251.0980 108.9714 12.53073835631496
AO-7 [P]                
1 07530U 74089B   08167.77724697 -.00000027  00000-0  10000-3 0  2025
2 07530 101.4650 199.3213 0011636 265.5630  94.4098 12.53573696536809
AO-8 [-]                
1 10703U 78026B   08167.19212589 -.00000266  00000-0 -15490-3 0  1803
2 10703  98.8831 218.8099 0007161 105.0356 255.1601 13.98811093544716
AO-10 [-]               
1 14129U 83058B   08167.28871326  .00000141  00000-0  10000-3 0  5187
2 14129  25.9664 210.2930 5984213 132.2141 297.0159  2.05868517160095
UO-11 [P]               
1 14781U 84021B   08167.08928727  .00000030  00000-0  11290-4 0  6954
2 14781  98.1540 201.0916 0010211  80.9777 279.2564 14.79647843303545
FO-12 [-]               
1 16909U 86061B   08166.58057540 -.00000083  00000-0  10000-3 0  3991
2 16909  50.0164 211.9978 0010741 352.7439   7.3239 12.44451900993203
UO-14 [-]               
1 20437U 90005B   08167.10674085 -.00000004  00000-0  14150-4 0  6619
2 20437  98.2874 134.7518 0010098 174.3528 185.7770 14.31517936960531
UO-15 [-]               
1 20438U 90005C   08167.04150573 -.00000003  00000-0  15009-4 0  1487
2 20438  98.3477 125.9100 0009237 200.1353 159.9468 14.30425927959989
AO-16 [P]               
1 20439U 90005D   08167.67317394 -.00000004  00000-0  13768-4 0  3453
2 20439  98.2295 147.8135 0010697 176.2715 183.8553 14.31795825960706
DO-17 [-]               
1 20440U 90005E   08167.12249684  .00000023  00000-0  23555-4 0   464
2 20440  98.2086 152.8144 0010886 174.2560 185.8755 14.32098229960754
WO-18 [-]               
1 20441U 90005F   08167.06560828  .00000014  00000-0  20488-4 0  5562
2 20441  98.2142 151.2773 0011393 178.1144 182.0092 14.31863889960680
LO-19 [P]               
1 20442U 90005G   08167.09189341 -.00000053  00000-0 -45198-5 0  2729
2 20442  98.2004 155.8051 0011893 176.2516 183.8750 14.32033945960777
FO-20 [-]               
1 20480U 90013C   08166.99610301 -.00000021  00000-0  32829-4 0  8606
2 20480  99.0210 150.4793 0539573 281.9501  72.1633 12.83357227859806
AO-21 [-]               
1 21087U 91006A   08167.13850505  .00000048  00000-0  34314-4 0  9882
2 21087  82.9421 317.8964 0033817 226.9613 132.8722 13.75034015871971
RS-12 & RS-13 [-]       
1 21089U 91007A   08166.57169188  .00000005  00000-0 -10584-4 0  8709
2 21089  82.9214 179.4658 0027548 274.7298  85.0707 13.74480415870697
UO-22 [-]               
1 21575U 91050B   08167.42610938 -.00000124  00000-0 -25988-4 0  3045
2 21575  98.3959 116.5349 0008152  44.5011 315.6820 14.39640643887935
KO-23 [-]               
1 22077U 92052B   08167.35712070 -.00000037  00000-0  10000-3 0  4555
2 22077  66.0855  14.9268 0001829 171.7587 188.3459 12.86444331744331
AO-24 [-]               
1 22654U 93031B   08166.01100508 -.00000127  00000-0  10000-3 0  1471
2 22654   5.3611 344.1550 2895795 139.5913 245.9133  1.42205753 73887
AO-27 [+]               
1 22825U 93061C   08167.52051965 -.00000103  00000-0 -23940-4 0  9935
2 22825  98.3830 127.6043 0007519 265.1641  94.8681 14.29240546767533
IO-26 [-]               
1 22826U 93061D   08167.50485895  .00000012  00000-0  20970-4 0  6986
2 22826  98.3762 128.4998 0008003 262.7494  97.2779 14.29489891767627
KO-25 [-]               
1 22828U 93061F   08167.40652253 -.00000018  00000-0  91241-5 0  9273
2 22828  98.3694 128.3941 0009066 235.2706 124.7632 14.29793462735879
PO-28 [+]               
1 22829U 93061G   08167.42223683  .00000033  00000-0  28830-4 0  9692
2 22829  98.3639 129.5246 0008837 232.8909 127.1468 14.30191270767873
RS-15 [P]               
1 23439U 94085A   08166.97386452 -.00000039  00000-0  10000-3 0  1542
2 23439  64.8139 138.6251 0147442 123.2703 238.2447 11.27552204554711
FO-29 [P]               
1 24278U 96046B   08167.56834613  .00000005  00000-0  43305-4 0  7965
2 24278  98.5867  84.0700 0350246 219.6311 137.8745 13.52937928584179
MO-30 [-]               
1 24305U 96052B   08167.47843370  .00000024  00000-0  97066-5 0  8352
2 24305  82.9360 265.2388 0029569 192.0446 168.0000 13.73559089590330
TO-31 [-]               
1 25396U 98043C   08167.01568243 -.00000045  00000-0 -17092-5 0  1324
2 25396  98.3762 207.2175 0002086 207.3982 152.7093 14.23757119516057
GO-32 [P]               
1 25397U 98043D   08167.21226039  .00000022  00000-0  27793-4 0  6237
2 25397  98.3636 202.4723 0000386 209.7981 150.3194 14.23144659515931
SO-33 [P]               
1 25509U 98061B   08167.79245025  .00000226  00000-0  34443-4 0  2198
2 25509  31.4330 324.2299 0354642  14.9787 346.1044 14.28216198503415
PO-34 [-]               
1 25520U 98064B   08166.43385392  .00000316  00000-0  57925-5 0   151
2 25520  28.4599 197.2168 0005548 252.0908 107.9073 15.17200626532743
ARISS [+]               
1 25544U 98067A   08167.84235066  .00010611  00000-0  68035-4 0  6741
2 25544  51.6416  23.3165 0005713 335.8465 132.8960 15.76927027548311
SO-35 [-]               
1 25636U 99008C   08167.41693853  .00000007  00000-0  10411-4 0   358
2 25636  96.4849  73.3413 0147076 303.6874  55.0367 14.43435360490193
UO-36 [-]               
1 25693U 99021A   08166.91136502 -.00000054  00000-0  12350-4 0  6570
2 25693  64.5557 164.1623 0042002 237.0196 122.6863 14.78712929493530
OO-38 [-]               
1 26063U 00004C   08167.68872580 -.00000047  00000-0  43000-5 0  2365
2 26063 100.1921 242.0213 0036694 213.1413 146.7463 14.35837493439352
SO-41 [-]               
1 26545U 00057A   08166.49793942  .00000001  00000-0  18971-4 0  9915
2 26545  64.5559 170.4700 0028716 338.1225  21.8659 14.80512237416763
MO-46 [-]               
1 26548U 00057D   08167.07706161 -.00000032  00000-0  14225-4 0  1241
2 26548  64.5560 136.8021 0029459 324.4757  35.4339 14.83268804417503
SO-42 [-]               
1 26549U 00057E   08167.12267498 -.00000057  00000-0  11618-4 0   680
2 26549  64.5570 183.1594 0029760 347.0697  12.9620 14.79370096416564
AO-40 [-]               
1 26609U 00072B   08166.42140440 -.00000059  00000-0  10000-3 0   778
2 26609   7.5759  77.5707 7915280  91.3445 349.4042  1.25583766 35006
NO-44 [P]               
1 26931U 01043C   08167.74647968 -.00000091  00000-0 -32845-5 0  9036
2 26931  67.0526 288.3673 0006750 272.5354  87.4961 14.29525397350204
NO-45 [-]               
1 26932U 01043D   08166.81495236 -.00000038  00000-0  17323-4 0  9070
2 26932  67.0530 290.6223 0005474 286.0577  73.9921 14.29586740350111
BO-47 & BO-48 [-]       
1 27422U 02021B   08166.85594217 -.00000027  00000-0  64561-5 0  7742
2 27422  98.5517 247.9952 0011742 218.7809 141.2530 14.28449404316963
AO-49 [-]               
1 27605U 02058A   08167.09393444 -.00000070  00000-0  11437-4 0  6594
2 27605  64.5599  48.8170 0085072 280.7468  78.4087 14.72351952294890
SO-50 [+]               
1 27607U 02058C   08166.89942518 -.00000074  00000-0  10922-4 0  6306
2 27607  64.5595  60.5875 0085718 279.8666  79.2758 14.71361732294639
DTUSAT [-]              
1 27842U 03031C   08167.03524973  .00000021  00000-0  30052-4 0  3086
2 27842  98.7099 176.3241 0010292 100.3425 259.8906 14.20934965257208
CO-55 [+]               
1 27844U 03031E   08167.25333185  .00000035  00000-0  36490-4 0  3284
2 27844  98.7144 175.5466 0010629 117.6072 242.6178 14.20583767257160
AAU CUBESAT [-]         
1 27846U 03031G   08166.96460510  .00000029  00000-0  33762-4 0  2513
2 27846  98.7088 176.2492 0010263 100.6299 259.6033 14.20935769257197
CANX-1 [-]              
1 27847U 03031H   08166.96912009  .00000019  00000-0  28917-4 0  2648
2 27847  98.7098 176.2509 0010267  99.7026 260.5303 14.20922455257142
CO-57 [+]               
1 27848U 03031J   08167.46248810  .00000034  00000-0  36394-4 0  2798
2 27848  98.7157 174.8497 0010509 121.0212 239.2003 14.20392436257166
RS-22 [+]               
1 27939U 03042A   08167.26846140  .00000015  00000-0  11831-4 0  5206
2 27939  97.9956  48.3835 0013031 205.8175 154.2384 14.63238844251912
AO-51 [+]               
1 28375U 04025K   08167.10404525  .00000016  00000-0  17443-4 0  1249
2 28375  98.0708 191.7921 0083686 158.4474 202.0268 14.40610846208108
VO-52 [+]               
1 28650U 05017B   08167.31251863  .00000141  00000-0  24570-4 0  9566
2 28650  97.7903 233.9753 0027968 144.8898 215.4138 14.81473430168323
UWE-1 [-]               
1 28892U 05043C   08166.75323838  .00000206  00000-0  52843-4 0   749
2 28892  98.0969  60.4535 0018408  59.2549 301.0454 14.59636743140246
XO-53 [-]               
1 28894U 05043E   08166.91062035  .00000013  00000-0  12288-4 0  1856
2 28894  98.0979  60.8590 0018619  59.8900 300.4140 14.59621912140275
CO-58 [+]               
1 28895U 05043F   08167.74946542  .00000072  00000-0  24669-4 0   460
2 28895  98.0995  61.7848 0018826  56.1488 304.1507 14.59675724140279
NCUBE-2 [-]             
1 28897U 05043H   08167.64562281  .00000094  00000-0  29122-4 0  5766
2 28897  98.0979  61.6144 0018379  56.5358 303.7604 14.59846704132546
CO-56 [P]               
1 28941U 06005C   08167.72192445  .00020255  25092-5  15029-3 0  1338
2 28941  98.1083 278.2225 0166115  46.8957 314.6236 15.57216847129814
HO-59 [+]               
1 29484U 06041F   08167.82715438  .01076901  30059-5  32619-3 0  4555
2 29484  98.2591 289.3871 0021670 336.4585  25.4445 16.26225682 98338
FCAL [+]                
1 29667U 06055J   08146.34060426  .11864717  12752-4  73624-4 0  9790
2 29667  51.6107  65.3702 0009039 260.8350  99.5042 16.53464210 82911
PEHUENSAT 1 [+]         
1 29712U 07001D   08167.80450629  .00000423  00000-0  62392-4 0  5356
2 29712  97.8750 226.0171 0015028  30.4419 329.7658 14.80181882 77268
